RAMSAT                  
1 48850U 98067SL  21184.65687618  .00006508  00000-0  12248-3 0  9997
2 48850  51.6419 261.1595 0003841 198.4209 161.6642 15.49864393  3024
SOAR                    
1 48851U 98067SM  21185.49230343  .00016769  00000-0  29760-3 0  9997
2 48851  51.6411 256.9887 0003034 204.4604 155.6241 15.50338812  3194
BD-28                   
1 48867U 98067SN  21185.49771770  .00008473  00000-0  15631-3 0  9993
2 48867  51.6446 257.0203 0002469 233.9032 126.1606 15.49993771  1900
MIR-SAT 1               
1 48868U 98067SP  21185.49968649  .00014826  00000-0  26905-3 0  9992
2 48868  51.6454 257.0327 0002256 200.7300 159.3539 15.49809171  1937
